IRIDIUM 921             
1 24873U 97034E   24340.71675422  .00137360  00000+0  12607-2 0  9991
2 24873  86.3713 201.8019 0003113  48.0457 312.1076 15.67298641501747
IRIDIUM 26              
1 24903U 97043A   24341.09394714  .00000850  00000+0  28117-3 0  9996
2 24903  86.3988 191.6467 0002079  79.9102 280.2330 14.36833988429480
IRIDIUM 22              
1 24907U 97043E   24340.86630873  .00000809  00000+0  27359-3 0  9994
2 24907  86.3994 195.1119 0001958  85.7293 274.4128 14.35681654429036
DUMMY MASS 1            
1 24925U 97048A   24340.79185768  .00001044  00000+0  11439-3 0  9993
2 24925  86.3371 224.6636 0008968 105.8416 254.3798 14.86661218476397
DUMMY MASS 2            
1 24926U 97048B   24340.72191973  .00001022  00000+0  11263-3 0  9993
2 24926  86.3370 226.2678 0009560 115.2934 244.9282 14.86415706476167
IRIDIUM 29              
1 24944U 97051A   24341.16365957  .00000882  00000+0  29615-3 0  9994
2 24944  86.3982 224.7754 0002074  88.6856 271.4579 14.36146874425781
IRIDIUM 28              
1 24948U 97051E   24340.77516277  .00000903  00000+0  29760-3 0  9992
2 24948  86.3990 222.5649 0002163  70.9720 289.1712 14.37093834426061
